[{"OBJECT_NAME":"BRO-11","OBJECT_ID":"2023-174J","EPOCH":"2026-03-09T23:01:09.890400","MEAN_MOTION":15.26267731,"ECCENTRICITY":0.00104518,"INCLINATION":97.3961,"RA_OF_ASC_NODE":146.7679,"ARG_OF_PERICENTER":189.9892,"MEAN_ANOMALY":170.1141,"EPHEMERIS_TYPE":0,"CLASSIFICATION_TYPE":"U","NORAD_CAT_ID":58264,"ELEMENT_SET_NO":999,"REV_AT_EPOCH":12961,"BSTAR":0.00032296323,"MEAN_MOTION_DOT":8.313e-5,"MEAN_MOTION_DDOT":0},{"OBJECT_NAME":"STARLINK-31665","OBJECT_ID":"2024-084B","EPOCH":"2026-03-09T07:06:07.697952","MEAN_MOTION":15.27569495,"ECCENTRICITY":0.00017995,"INCLINATION":43.0061,"RA_OF_ASC_NODE":40.5043,"ARG_OF_PERICENTER":262.0868,"MEAN_ANOMALY":97.978,"EPHEMERIS_TYPE":0,"CLASSIFICATION_TYPE":"U","NORAD_CAT_ID":59655,"ELEMENT_SET_NO":999,"REV_AT_EPOCH":10435,"BSTAR":-0.00010616998,"MEAN_MOTION_DOT":-3.182e-5,"MEAN_MOTION_DDOT":0}]
